NORAD_CAT_ID,OBJECT_NAME,OBJECT_TYPE,EPOCH,MEAN_MOTION,ECCENTRICITY,INCLINATION,RA_OF_ASC_NODE,ARG_OF_PERICENTER,MEAN_ANOMALY,BSTAR,MEAN_MOTION_DOT,MEAN_MOTION_DDOT,TLE_LINE0,TLE_LINE1,TLE_LINE2,SEMIMAJOR_AXIS,PERIOD,APOGEE,PERIGEE,DECAYED
51727.0,STARLINK-3532,PAYLOAD,2022-09-10 14:00:01,15.08813406,0.0002006999999999,53.2149,297.7801,41.7301,254.5163,0.0030936999999999,0.00049257,0.0,0 STARLINK-3532,1 51727U 22016P   22253.58334491  .00049257  00000-0  30937-2 0  9995,2 51727  53.2149 297.7801 0002007  41.7301 254.5163 15.08813406  1303,6917.962,95.439,541.215,538.438,0.0
51727.0,STARLINK-3532,PAYLOAD,2022-09-10 22:00:00,15.0883294,0.0001818,53.2151,296.2818,44.5772,263.2637,-0.00069322,-0.00011302,0.0,0 STARLINK-3532,1 51727U 22016P   22253.91667824 -.00011302  00000-0 -69322-3 0  9994,2 51727  53.2151 296.2818 0001818  44.5772 263.2637 15.08832940  1307,6917.901999999999,95.438,541.025,538.509,0.0
51727.0,STARLINK-3532,PAYLOAD,2022-09-11 06:00:00,15.08841189,0.0001869,53.2151,294.7857,44.7647,274.6538,-0.0010997,-0.00017748,0.0,0 STARLINK-3532,1 51727U 22016P   22254.25001157 -.00017748  00000-0 -10997-2 0  9996,2 51727  53.2151 294.7857 0001869  44.7647 274.6538 15.08841189 31935,6917.877,95.437,541.035,538.4490000000002,0.0
51727.0,STARLINK-3532,PAYLOAD,2022-09-11 14:00:01,15.08815507,0.0002025,53.2149,293.2904,40.0642,290.9469,0.0030385,0.0004837,0.0,0 STARLINK-3532,1 51727U 22016P   22254.58334491  .00048370  00000-0  30385-2 0  9998,2 51727  53.2149 293.2904 0002025  40.0642 290.9469 15.08815507  1305,6917.955,95.439,541.221,538.419,0.0
51727.0,STARLINK-3532,PAYLOAD,2022-09-11 22:00:00,15.08823945,0.0001846,53.2152,291.7921,44.6798,297.9249,0.0024127,0.00038303,0.0,0 STARLINK-3532,1 51727U 22016P   22254.91667824  .00038303  00000-0  24127-2 0  9996,2 51727  53.2152 291.7921 0001846  44.6798 297.9249 15.08823945 32035,6917.929,95.439,541.072,538.5169999999998,0.0
51727.0,STARLINK-3532,PAYLOAD,2022-09-12 14:00:01,15.08814715,0.000199,53.215,288.8006,38.1096,327.6986,0.0025709,0.00040837,0.0,0 STARLINK-3532,1 51727U 22016P   22255.58334491  .00040837  00000-0  25709-2 0  9993,2 51727  53.2150 288.8006 0001990  38.1096 327.6986 15.08814715  1303,6917.958000000001,95.439,541.1990000000002,538.446,0.0
51727.0,STARLINK-3532,PAYLOAD,2022-09-12 22:00:00,15.08818323,0.0001786999999999,53.2152,287.3023,43.5522,333.8501,0.0028896,0.00045973,0.0,0 STARLINK-3532,1 51727U 22016P   22255.91667824  .00045973  00000-0  28896-2 0  9995,2 51727  53.2152 287.3023 0001787  43.5522 333.8501 15.08818323  1307,6917.946999999999,95.439,541.048,538.575,0.0
51727.0,STARLINK-3532,PAYLOAD,2022-09-13 08:00:01,15.0886518,0.0001943,53.2152,285.433,41.5985,80.2952,-0.0018219,-0.00029187,0.0,0 STARLINK-3532,1 51727U 22016P   22256.33334491 -.00029187  00000-0 -18219-2 0  9992,2 51727  53.2152 285.4330 0001943  41.5985  80.2952 15.08865180 32256,6917.803000000001,95.436,541.013,538.3240000000002,0.0
51727.0,STARLINK-3532,PAYLOAD,2022-09-13 14:00:01,15.08847627,0.0001965,53.2151,284.3109,37.4215,3.1858,-0.00041217,-6.843e-05,0.0,0 STARLINK-3532,1 51727U 22016P   22256.58334491 -.00006843  00000-0 -41217-3 0  9998,2 51727  53.2151 284.3109 0001965  37.4215   3.1858 15.08847627  1308,6917.857,95.437,541.081,538.363,0.0
51727.0,STARLINK-3532,PAYLOAD,2022-09-13 22:00:00,15.08822131,0.0001743,53.2153,282.8127,42.8216,9.3801,0.00053898,8.296e-05,0.0,0 STARLINK-3532,1 51727U 22016P   22256.91667824  .00008296  00000-0  53898-3 0  9994,2 51727  53.2153 282.8127 0001743  42.8216   9.3801 15.08822131  1307,6917.935,95.439,541.006,538.594,0.0
51727.0,STARLINK-3532,PAYLOAD,2022-09-14 14:00:01,15.08809847,0.0002019,53.2147,279.8214,40.8454,34.505,0.0015738,0.00024827,0.0,0 STARLINK-3532,1 51727U 22016P   22257.58334491  .00024827  00000-0  15738-2 0  9997,2 51727  53.2147 279.8214 0002019  40.8454  34.5050 15.08809847  1307,6917.973000000001,95.439,541.234,538.441,0.0
51727.0,STARLINK-3532,PAYLOAD,2022-09-14 22:00:00,15.08801682,0.0001824,53.2148,278.3233,46.9085,40.0204,0.0030535,0.00048593,0.0,0 STARLINK-3532,1 51727U 22016P   22257.91667824  .00048593  00000-0  30535-2 0  9991,2 51727  53.2148 278.3233 0001824  46.9085  40.0204 15.08801682  1305,6917.998000000001,95.44,541.124,538.601,0.0
51727.0,STARLINK-3532,PAYLOAD,2022-09-15 14:00:01,15.08833389,0.0002064,53.2144,275.3321,42.673,67.4119,0.0012125999999999,0.0001906,0.0,0 STARLINK-3532,1 51727U 22016P   22258.58334491  .00019060  00000-0  12126-2 0  9999,2 51727  53.2144 275.3321 0002064  42.6730  67.4119 15.08833389  1300,6917.901,95.438,541.193,538.3380000000002,0.0
51727.0,STARLINK-3532,PAYLOAD,2022-09-15 16:00:00,15.08853817,0.0002019,53.2144,274.9574,44.5184,158.4595,-0.0013705,-0.00022042,0.0,0 STARLINK-3532,1 51727U 22016P   22258.66667824 -.00022042  00000-0 -13705-2 0  9997,2 51727  53.2144 274.9574 0002019  44.5184 158.4595 15.08853817  1306,6917.8380000000025,95.437,541.1,538.306,0.0
51727.0,STARLINK-3532,PAYLOAD,2022-09-16 05:24:43,15.08841839,0.0001928,53.2161,272.4482,47.7707,312.3448,0.00017365,2.477e-05,0.0,0 STARLINK-3532,1 51727U 22016P   22259.22550633  .00002477  00000-0  17365-3 0  9994,2 51727  53.2161 272.4482 0001928  47.7707 312.3448 15.08841839 32684,6917.875,95.437,541.0740000000002,538.406,0.0
51727.0,STARLINK-3532,PAYLOAD,2022-09-16 08:35:29,15.08851975,0.0001849,53.2155,271.8533,52.6038,307.5122,-4.3514e-05,-9.81e-06,0.0,0 STARLINK-3532,1 51727U 22016P   22259.35798087 -.00000981  00000-0 -43514-4 0  9991,2 51727  53.2155 271.8533 0001849  52.6038 307.5122 15.08851975 32701,6917.844,95.437,540.988,538.43,0.0
51727.0,STARLINK-3532,PAYLOAD,2022-09-16 18:07:48,15.08846001,0.0002093,53.2156,270.0691,47.8243,312.2926,0.00037103,5.623e-05,0.0,0 STARLINK-3532,1 51727U 22016P   22259.75542809  .00005623  00000-0  37103-3 0  9996,2 51727  53.2156 270.0691 0002093  47.8243 312.2926 15.08846001 32769,6917.861999999999,95.437,541.175,538.279,0.0
51727.0,STARLINK-3532,PAYLOAD,2022-09-17 00:29:21,15.08850163,0.0002079,53.2151,268.8792,49.0049,311.1123,0.00035665,5.394e-05,0.0,0 STARLINK-3532,1 51727U 22016P   22260.02038584  .00005394  00000-0  35665-3 0  9994,2 51727  53.2151 268.8792 0002079  49.0049 311.1123 15.08850163 31741,6917.849,95.437,541.153,538.276,0.0
51727.0,STARLINK-3532,PAYLOAD,2022-09-17 17:58:36,15.08840875,0.0002108,53.2149,265.6088,50.8433,309.2746,8.8329e-05,1.118e-05,0.0,0 STARLINK-3532,1 51727U 22016P   22260.74902986  .00001118  00000-0  88329-4 0  9995,2 51727  53.2149 265.6088 0002108  50.8433 309.2746 15.08840875 32919,6917.878000000002,95.437,541.201,538.284,0.0
51727.0,STARLINK-3532,PAYLOAD,2022-09-18 09:52:27,15.08846213,0.0002444,53.2148,262.6381,40.5629,319.5545,0.00014538,2.027e-05,0.0,0 STARLINK-3532,1 51727U 22016P   22261.41142744  .00002027  00000-0  14538-3 0  9998,2 51727  53.2148 262.6381 0002444  40.5629 319.5545 15.08846213 31953,6917.861,95.437,541.4169999999998,538.036,0.0
51727.0,STARLINK-3532,PAYLOAD,2022-09-18 19:24:46,15.08840968,0.0002411999999999,53.2156,260.8524,45.7084,314.4106,4.5977e-07,-2.81e-06,0.0,0 STARLINK-3532,1 51727U 22016P   22261.80887035 -.00000281  00000-0  45977-6 0  9995,2 51727  53.2156 260.8524 0002412  45.7084 314.4106 15.08840968 33071,6917.877,95.437,541.411,538.0740000000002,0.0
51727.0,STARLINK-3532,PAYLOAD,2022-09-19 09:43:14,15.08847304,0.0002072,53.2151,258.1742,48.7285,311.3886,0.00020378,2.957e-05,0.0,0 STARLINK-3532,1 51727U 22016P   22262.40502566  .00002957  00000-0  20378-3 0  9991,2 51727  53.2151 258.1742 0002072  48.7285 311.3886 15.08847304 32101,6917.858,95.437,541.156,538.29,0.0
51727.0,STARLINK-3532,PAYLOAD,2022-09-20 09:34:01,15.08842655,0.0002082,53.2148,253.7139,49.4497,310.6676,5.3812e-05,5.68e-06,0.0,0 STARLINK-3532,1 51727U 22016P   22263.39862454  .00000568  00000-0  53812-4 0  9991,2 51727  53.2148 253.7139 0002082  49.4497 310.6676 15.08842655 32251,6917.871999999999,95.437,541.178,538.297,0.0
51727.0,STARLINK-3532,PAYLOAD,2022-09-21 06:14:02,15.08837926,0.0002056999999999,53.2149,249.848,47.161,312.9555,5.8083000000000025e-06,-1.96e-06,0.0,0 STARLINK-3532,1 51727U 22016P   22264.25974668 -.00000196  00000-0  58083-5 0  9992,2 51727  53.2149 249.8480 0002057  47.1610 312.9555 15.08837926 33449,6917.887,95.438,541.175,538.3290000000002,0.0
51727.0,STARLINK-3532,PAYLOAD,2022-09-21 20:32:30,15.08842075,0.0002044,53.2147,247.1718,48.2484,311.8683,6.3606e-05,7.24e-06,0.0,0 STARLINK-3532,1 51727U 22016P   22264.85590428  .00000724  00000-0  63606-4 0  9998,2 51727  53.2147 247.1718 0002044  48.2484 311.8683 15.08842075 32472,6917.874,95.437,541.153,538.325,0.0
51727.0,STARLINK-3532,PAYLOAD,2022-09-22 06:04:48,15.08843828,0.0002387,53.2148,245.3894,36.4338,323.6816,0.00018015,2.58e-05,0.0,0 STARLINK-3532,1 51727U 22016P   22265.25334442  .00002580  00000-0  18015-3 0  9990,2 51727  53.2148 245.3894 0002387  36.4338 323.6816 15.08843828 32538,6917.869000000002,95.437,541.385,538.082,0.0
51727.0,STARLINK-3532,PAYLOAD,2022-09-22 20:23:17,15.08834229,0.0002426,53.2141,242.715,44.5708,315.5479,-6.9867e-06,-4e-06,0.0,0 STARLINK-3532,1 51727U 22016P   22265.84951229 -.00000400  00000-0 -69867-5 0  9997,2 51727  53.2141 242.7150 0002426  44.5708 315.5479 15.08834229 32622,6917.898,95.438,541.441,538.085,0.0
51727.0,STARLINK-3532,PAYLOAD,2022-09-23 04:20:13,15.08828546,0.0002340999999999,53.2156,241.2272,45.4184,314.6999,0.00022645,3.316e-05,0.0,0 STARLINK-3532,1 51727U 22016P   22266.18071639  .00003316  00000-0  22645-3 0  9991,2 51727  53.2156 241.2272 0002341  45.4184 314.6999 15.08828546 33736,6917.915,95.438,541.4,538.161,0.0
51727.0,STARLINK-3532,PAYLOAD,2022-09-23 05:55:37,15.08828348,0.0002359,53.2155,240.9302,45.2294,314.8889,0.00023663,3.479e-05,0.0,0 STARLINK-3532,1 51727U 22016P   22266.24695653  .00003479  00000-0  23663-3 0  9997,2 51727  53.2155 240.9302 0002359  45.2294 314.8889 15.08828348 32687,6917.916,95.438,541.413,538.149,0.0
